STARLINK-35033          
1 65468U 25195L   26187.07479812  .00042558  00000+0  13761-2 0  9996
2 65468  53.1586  67.2527 0001458  94.9820 265.1348 15.31682363 48131
STARLINK-34924          
1 65469U 25195M   26186.96869309  .00062906  00000+0  18586-2 0  9997
2 65469  53.1567  67.3088 0001211  85.2266 274.8875 15.34378322 48129
STARLINK-34829          
1 65470U 25195N   26187.09346619  .00063644  00000+0  20441-2 0  9991
2 65470  53.1578  67.3721 0001182  88.6514 271.4623 15.31717317 48130
STARLINK-34888          
1 65471U 25195P   26187.06328666  .00072389  00000+0  21332-2 0  9997
2 65471  53.1596  67.1812 0001499 107.2451 252.8716 15.34397345 48133
STARLINK-34799          
1 65472U 25195Q   26187.09054829  .00058003  00000+0  17146-2 0  9993
2 65472  53.1575  66.6469 0001020  81.5816 278.5302 15.34400001 48121
STARLINK-34762          
1 65473U 25195R   26187.08634410  .00067211  00000+0  19835-2 0  9991
2 65473  53.1576  66.6198 0001364  95.5540 264.5618 15.34385973 48127
STARLINK-34998          
1 65474U 25195S   26187.03063482  .00051463  00000+0  17374-2 0  9990
2 65474  53.1572  68.3963 0001301  89.7908 270.3242 15.30205111 48092
STARLINK-34832          
1 65475U 25195T   26186.95185465  .00074680  00000+0  21981-2 0  9992
2 65475  53.1578  67.2024 0001349  89.0674 271.0483 15.34420548 48104
STARLINK-35098          
1 65476U 25195U   26186.93495853  .00034686  00000+0  11252-2 0  9998
2 65476  53.1593  67.7981 0001376 111.0337 249.0812 15.31675550 48092
STARLINK-35071          
1 65477U 25195V   26187.05908058  .00051224  00000+0  15180-2 0  9990
2 65477  53.1595  67.1557 0001266  88.1927 271.9221 15.34375390 48118
STARLINK-35093          
1 65478U 25195W   26186.96763100  .00059640  00000+0  19190-2 0  9992
2 65478  53.1577  68.0091 0001493 101.4146 258.7023 15.31689326 48090
STARLINK-35096          
1 65479U 25195X   26187.03754706  .00058352  00000+0  18770-2 0  9996
2 65479  53.1576  67.7301 0000997 100.5668 259.5446 15.31708650 48109
STARLINK-35040          
1 65480U 25195Y   26187.09263227  .00042237  00000+0  12525-2 0  9994
2 65480  53.1576  66.6322 0001159  76.9200 283.1932 15.34442716 48127
STARLINK-35042          
1 65481U 25195Z   26187.04014190  .00065345  00000+0  19302-2 0  9998
2 65481  53.1572  67.0344 0000985  97.4242 262.6872 15.34369396 48119
STARLINK-35038          
1 65482U 25195AA  26187.08844447  .00063434  00000+0  18733-2 0  9993
2 65482  53.1577  66.6032 0001346  89.7928 270.3229 15.34391521 48129
STARLINK-35037          
1 65483U 25195AB  26186.98973147  .00065319  00000+0  19288-2 0  9992
2 65483  53.1596  67.4123 0001003  96.0838 264.0279 15.34379680 48107
STARLINK-35089          
1 65484U 25195AC  26187.08423336  .00069745  00000+0  20556-2 0  9992
2 65484  53.1582  66.5788 0001331  96.2244 263.8911 15.34410164 48122
STARLINK-35143          
1 65485U 25195AD  26187.04688764  .00074849  00000+0  24003-2 0  9999
2 65485  53.1615  67.7662 0002192  51.9532 308.1667 15.31690983 48103
STARLINK-35226          
1 65492U 25198A   26186.98344393  .00032234  00000+0  96216-3 0  9997
2 65492  53.1577  79.2490 0001259  87.6294 272.4853 15.34363152 46767
STARLINK-35242          
1 65493U 25198B   26186.97083034  .00042421  00000+0  12606-2 0  9998
2 65493  53.1587  79.1771 0001381 103.2905 256.8252 15.34374836 46760
STARLINK-35223          
1 65494U 25198C   26187.13476375  .00045881  00000+0  13583-2 0  9990
2 65494  53.1577  78.7723 0001337  82.1000 278.0154 15.34457982 46787
STARLINK-34446          
1 65495U 25198D   26187.25004630  .00049046  00000+0  14529-2 0  9993
2 65495  53.1577  80.3679 0001200  91.6852 182.3035 15.34407494  5868
STARLINK-35212          
1 65496U 25198E   26187.02813545  .00027254  00000+0  81464-3 0  9992
2 65496  53.1597  80.9441 0001280  76.1705 283.9440 15.34407782 46747
STARLINK-34455          
1 65497U 25198F   26186.99819831  .00072208  00000+0  21273-2 0  9992
2 65497  53.1573  79.3437 0001546  81.5372 278.5805 15.34406203 46768
STARLINK-35203          
1 65498U 25198G   26187.09747895  .00064124  00000+0  18923-2 0  9991
2 65498  53.1594  80.6684 0001705  76.3308 283.7884 15.34408697 46752
STARLINK-35166          
1 65499U 25198H   26187.09537411  .00077160  00000+0  22702-2 0  9997
2 65499  53.1599  80.6572 0001055  86.5440 273.5683 15.34416977 46756
SHIYAN-29               
1 65486U 25196A   26186.77186050 -.00000269  00000+0  00000+0 0  9995
2 65486  28.8406  18.3010 0013529 175.7400 102.7563  1.00280025  3067
