OBJECT_NAME,OBJECT_ID,EPOCH,MEAN_MOTION,ECCENTRICITY,INCLINATION,RA_OF_ASC_NODE,ARG_OF_PERICENTER,MEAN_ANOMALY,EPHEMERIS_TYPE,CLASSIFICATION_TYPE,NORAD_CAT_ID,ELEMENT_SET_NO,REV_AT_EPOCH,BSTAR,MEAN_MOTION_DOT,MEAN_MOTION_DDOT
STARLINK-35033,2025-195L,2026-07-06T01:47:42.557568,15.31682363,.0001458,53.1586,67.2527,94.9820,265.1348,0,U,65468,999,4813,.13761111E-2,.42558E-3,0
STARLINK-34924,2025-195M,2026-07-05T23:14:55.082976,15.34378322,.00012119,53.1567,67.3088,85.2266,274.8875,0,U,65469,999,4812,.18586453E-2,.62906E-3,0
STARLINK-34829,2025-195N,2026-07-06T02:14:35.478816,15.31717317,.00011829,53.1578,67.3721,88.6514,271.4623,0,U,65470,999,4813,.20441386E-2,.63644E-3,0
STARLINK-34888,2025-195P,2026-07-06T01:31:07.967424,15.34397345,.0001499,53.1596,67.1812,107.2451,252.8716,0,U,65471,999,4813,.2133191E-2,.72389E-3,0
STARLINK-34799,2025-195Q,2026-07-06T02:10:23.372256,15.34400001,.000102,53.1575,66.6469,81.5816,278.5302,0,U,65472,999,4812,.17145916E-2,.58003E-3,0
STARLINK-34762,2025-195R,2026-07-06T02:04:20.130240,15.34385973,.00013648,53.1576,66.6198,95.5540,264.5618,0,U,65473,999,4812,.19834835E-2,.67211E-3,0
STARLINK-34998,2025-195S,2026-07-06T00:44:06.848448,15.30205111,.00013018,53.1572,68.3963,89.7908,270.3242,0,U,65474,999,4809,.17374069E-2,.51463E-3,0
STARLINK-34832,2025-195T,2026-07-05T22:50:40.241760,15.34420548,.00013498,53.1578,67.2024,89.0674,271.0483,0,U,65475,999,4810,.21980677E-2,.7468E-3,0
STARLINK-35098,2025-195U,2026-07-05T22:26:20.416992,15.31675550,.00013767,53.1593,67.7981,111.0337,249.0812,0,U,65476,999,4809,.11251678E-2,.34686E-3,0
STARLINK-35071,2025-195V,2026-07-06T01:25:04.562112,15.34375390,.00012669,53.1595,67.1557,88.1927,271.9221,0,U,65477,999,4811,.151804E-2,.51224E-3,0
STARLINK-35093,2025-195W,2026-07-05T23:13:23.318400,15.31689326,.00014934,53.1577,68.0091,101.4146,258.7023,0,U,65478,999,4809,.19189511E-2,.5964E-3,0
STARLINK-35096,2025-195X,2026-07-06T00:54:04.065984,15.31708650,.00009975,53.1576,67.7301,100.5668,259.5446,0,U,65479,999,4810,.18769787E-2,.58352E-3,0
STARLINK-35040,2025-195Y,2026-07-06T02:13:23.428128,15.34442716,.00011591,53.1576,66.6322,76.9200,283.1932,0,U,65480,999,4812,.1252483E-2,.42237E-3,0
STARLINK-35042,2025-195Z,2026-07-06T00:57:48.260160,15.34369396,.00009853,53.1572,67.0344,97.4242,262.6872,0,U,65481,999,4811,.19302281E-2,.65345E-3,0
STARLINK-35038,2025-195AA,2026-07-06T02:07:21.602208,15.34391521,.00013463,53.1577,66.6032,89.7928,270.3229,0,U,65482,999,4812,.18732503E-2,.63434E-3,0
STARLINK-35037,2025-195AB,2026-07-05T23:45:12.799008,15.34379680,.00010036,53.1596,67.4123,96.0838,264.0279,0,U,65483,999,4810,.1928831E-2,.65319E-3,0
STARLINK-35089,2025-195AC,2026-07-06T02:01:17.762304,15.34410164,.00013317,53.1582,66.5788,96.2244,263.8911,0,U,65484,999,4812,.20555656E-2,.69745E-3,0
STARLINK-35143,2025-195AD,2026-07-06T01:07:31.092096,15.31690983,.00021924,53.1615,67.7662,51.9532,308.1667,0,U,65485,999,4810,.24002863E-2,.74849E-3,0
SHIYAN-29,2025-196A,2026-07-05T18:31:28.747200,1.00280025,.00135295,28.8406,18.3010,175.7400,102.7563,0,U,65486,999,306,0,-.269E-5,0
STARLINK-35226,2025-198A,2026-07-05T23:36:09.555552,15.34363152,.00012594,53.1577,79.2490,87.6294,272.4853,0,U,65492,999,4676,.96215965E-3,.32234E-3,0
STARLINK-35242,2025-198B,2026-07-05T23:17:59.741376,15.34374836,.00013811,53.1587,79.1771,103.2905,256.8252,0,U,65493,999,4676,.12605762E-2,.42421E-3,0
STARLINK-35223,2025-198C,2026-07-06T03:14:03.588000,15.34457982,.00013379,53.1577,78.7723,82.1000,278.0154,0,U,65494,999,4678,.13582787E-2,.45881E-3,0
STARLINK-34446,2025-198D,2026-07-06T06:00:04.000320,15.34407494,.00012003,53.1577,80.3679,91.6852,182.3035,0,U,65495,999,586,.14529291E-2,.49046E-3,0
STARLINK-35212,2025-198E,2026-07-06T00:40:30.902880,15.34407782,.00012809,53.1597,80.9441,76.1705,283.9440,0,U,65496,999,4674,.81463702E-3,.27254E-3,0
STARLINK-34455,2025-198F,2026-07-05T23:57:24.333984,15.34406203,.00015466,53.1573,79.3437,81.5372,278.5805,0,U,65497,999,4676,.21273369E-2,.72208E-3,0
STARLINK-35203,2025-198G,2026-07-06T02:20:22.181280,15.34408697,.00017053,53.1594,80.6684,76.3308,283.7884,0,U,65498,999,4675,.18922833E-2,.64124E-3,0
STARLINK-35166,2025-198H,2026-07-06T02:17:20.323104,15.34416977,.00010557,53.1599,80.6572,86.5440,273.5683,0,U,65499,999,4675,.22702103E-2,.7716E-3,0
